JINJUSAT-1B             
1 63210U 25052A   26068.66363707  .00019955  00000+0  68430-3 0  9998
2 63210  97.4113 325.4613 0005550  82.1930 277.9941 15.30194857 54866
STARLINK-36469          
1 67360U 26003AC  26068.45442306  .00046142  00000+0  16722-2 0  9999
2 67360  43.0002 228.7601 0001292 271.6538  88.4165 15.27651087  8782
