[{"OBJECT_NAME":"JINJUSAT-1B","OBJECT_ID":"2025-052A","EPOCH":"2026-03-09T15:55:38.242848","MEAN_MOTION":15.30194857,"ECCENTRICITY":0.00055504,"INCLINATION":97.4113,"RA_OF_ASC_NODE":325.4613,"ARG_OF_PERICENTER":82.193,"MEAN_ANOMALY":277.9941,"EPHEMERIS_TYPE":0,"CLASSIFICATION_TYPE":"U","NORAD_CAT_ID":63210,"ELEMENT_SET_NO":999,"REV_AT_EPOCH":5486,"BSTAR":0.00068430401,"MEAN_MOTION_DOT":0.00019955,"MEAN_MOTION_DDOT":0},{"OBJECT_NAME":"STARLINK-36469","OBJECT_ID":"2026-003AC","EPOCH":"2026-03-09T10:54:22.152384","MEAN_MOTION":15.27651087,"ECCENTRICITY":0.00012926,"INCLINATION":43.0002,"RA_OF_ASC_NODE":228.7601,"ARG_OF_PERICENTER":271.6538,"MEAN_ANOMALY":88.4165,"EPHEMERIS_TYPE":0,"CLASSIFICATION_TYPE":"U","NORAD_CAT_ID":67360,"ELEMENT_SET_NO":999,"REV_AT_EPOCH":878,"BSTAR":0.0016721967,"MEAN_MOTION_DOT":0.00046142,"MEAN_MOTION_DDOT":0}]
